NORAD_CAT_ID,OBJECT_NAME,OBJECT_TYPE,EPOCH,MEAN_MOTION,ECCENTRICITY,INCLINATION,RA_OF_ASC_NODE,ARG_OF_PERICENTER,MEAN_ANOMALY,BSTAR,MEAN_MOTION_DOT,MEAN_MOTION_DDOT,TLE_LINE0,TLE_LINE1,TLE_LINE2,SEMIMAJOR_AXIS,PERIOD,APOGEE,PERIGEE,DECAYED
53980.0,STARLINK-5133,PAYLOAD,2024-07-21 04:19:54,15.08835137,0.0001156,53.2168,16.6785,80.1404,279.9718,-8.1427e-05,-1.583e-05,0.0,0 STARLINK-5133,1 53980U 22125S   24203.18049042 -.00001583  00000-0 -81427-4 0  9991,2 53980  53.2168  16.6785 0001156  80.1404 279.9718 15.08835137 99412,6917.895,95.438,540.56,538.961,0.0
53980.0,STARLINK-5133,PAYLOAD,2024-07-21 21:49:08,15.08849745,0.0001209,53.2196,13.4113,99.2991,260.8138,7.2702e-05,8.7e-06,0.0,0 STARLINK-5133,1 53980U 22125S   24203.90912625  .00000870  00000-0  72702-4 0  9999,2 53980  53.2196  13.4113 0001209  99.2991 260.8138 15.08849745 99453,6917.851,95.437,540.552,538.879,0.0
53980.0,STARLINK-5133,PAYLOAD,2024-07-22 21:39:55,15.08843566,0.0001086,53.2181,8.9395,74.1013,286.0099,3.4474e-05,2.61e-06,0.0,0 STARLINK-5133,1 53980U 22125S   24204.90273094  .00000261  00000-0  34474-4 0  9998,2 53980  53.2181   8.9395 0001086  74.1013 286.0099 15.08843566 99606,6917.869,95.437,540.486,538.983,0.0
53980.0,STARLINK-5133,PAYLOAD,2024-07-23 19:55:20,15.08843979,0.000132,53.2198,4.7753,98.7409,261.3733,4.1628e-05,3.75e-06,0.0,0 STARLINK-5133,1 53980U 22125S   24205.83009285  .00000375  00000-0  41628-4 0  9995,2 53980  53.2198   4.7753 0001320  98.7409 261.3733 15.08843979 99742,6917.868,95.437,540.646,538.82,0.0
53980.0,STARLINK-5133,PAYLOAD,2024-07-24 05:27:39,15.08840405,0.000193,53.2126,2.9936,77.59,282.5308,6.5998e-05,7.62e-06,0.0,0 STARLINK-5133,1 53980U 22125S   24206.22753703  .00000762  00000-0  65998-4 0  9996,2 53980  53.2126   2.9936 0001930  77.5900 282.5308 15.08840405 99872,6917.879,95.438,541.079,538.409,0.0
53980.0,STARLINK-5133,PAYLOAD,2024-07-25 10:04:35,15.08838999,9.81e-05,53.2172,357.6401,109.0706,251.0393,3.2576e-05,2.31e-06,0.0,0 STARLINK-5133,1 53980U 22125S   24207.41985586  .00000231  00000-0  32576-4 0  9991,2 53980  53.2172 357.6401 0000981 109.0706 251.0393 15.08838999100053,6917.883,95.438,540.427,539.07,0.0
53980.0,STARLINK-5133,PAYLOAD,2024-07-26 08:19:59,15.08843497,0.0001278,53.2164,353.4805,82.0622,278.0515,0.00012923,1.77e-05,0.0,0 STARLINK-5133,1 53980U 22125S   24208.34721226  .00001770  00000-0  12923-3 0  9995,2 53980  53.2164 353.4805 0001278  82.0622 278.0515 15.08843497100125,6917.87,95.437,540.619,538.851,0.0
53980.0,STARLINK-5133,PAYLOAD,2024-07-26 16:16:55,15.08823878,0.0001443,53.2186,351.9947,19.8326,340.2722,0.00062566,9.679e-05,0.0,0 STARLINK-5133,1 53980U 22125S   24208.67841685  .00009679  00000-0  62566-3 0  9997,2 53980  53.2186 351.9947 0001443  19.8326 340.2722 15.08823878100248,6917.93,95.439,540.793,538.796,0.0
53980.0,STARLINK-5133,PAYLOAD,2024-07-27 09:46:10,15.08832599,9.21e-05,53.2149,348.7217,65.6684,294.4404,-3.0921e-05,-7.8e-06,0.0,0 STARLINK-5133,1 53980U 22125S   24209.40706302 -.00000780  00000-0 -30921-4 0  9992,2 53980  53.2149 348.7217 0000921  65.6684 294.4404 15.08832599100356,6917.903,95.438,540.405,539.131,0.0
53980.0,STARLINK-5133,PAYLOAD,2024-07-27 19:18:29,15.08830207,9.82e-05,53.2153,346.9392,61.2109,298.8981,-5.3895e-05,-1.145e-05,0.0,0 STARLINK-5133,1 53980U 22125S   24209.80450702 -.00001145  00000-0 -53895-4 0  9997,2 53980  53.2153 346.9392 0000982  61.2109 298.8981 15.08830207100347,6917.91,95.438,540.455,539.096,0.0
53980.0,STARLINK-5133,PAYLOAD,2024-07-28 09:36:57,15.08843764,9.68e-05,53.2154,344.265,82.9339,277.1763,-7.1964e-05,-1.433e-05,0.0,0 STARLINK-5133,1 53980U 22125S   24210.40066072 -.00001433  00000-0 -71964-4 0  9995,2 53980  53.2154 344.2650 0000968  82.9339 277.1763 15.08843764100503,6917.869,95.437,540.404,539.064,0.0
53980.0,STARLINK-5133,PAYLOAD,2024-07-28 17:33:51,15.08858743,0.0001626,53.2203,342.7748,107.0216,253.0954,4.616e-05,4.47e-06,0.0,0 STARLINK-5133,1 53980U 22125S   24210.73184362  .00000447  00000-0  46160-4 0  9996,2 53980  53.2203 342.7748 0001626 107.0216 253.0954 15.08858743100557,6917.823,95.436,540.813,538.563,0.0
53980.0,STARLINK-5133,PAYLOAD,2024-07-29 01:30:48,15.08836847,0.0001655,53.2158,341.2889,74.0518,286.0657,0.00010363,1.361e-05,0.0,0 STARLINK-5133,1 53980U 22125S   24211.06305849  .00001361  00000-0  10363-3 0  9999,2 53980  53.2158 341.2889 0001655  74.0518 286.0657 15.08836847100609,6917.89,95.438,540.9,538.61,0.0
53980.0,STARLINK-5133,PAYLOAD,2024-07-29 17:24:39,15.0883628,0.0001092,53.2178,338.3162,99.866,260.2455,0.00012393,1.685e-05,0.0,0 STARLINK-5133,1 53980U 22125S   24211.72545799  .00001685  00000-0  12393-3 0  9996,2 53980  53.2178 338.3162 0001092  99.8660 260.2455 15.08836280100634,6917.892,95.438,540.512,539.001,0.0
53980.0,STARLINK-5133,PAYLOAD,2024-07-30 01:21:35,15.0883859,0.000117,53.2187,336.8293,94.1613,265.9513,0.00011232,1.5e-05,0.0,0 STARLINK-5133,1 53980U 22125S   24212.05665810  .00001500  00000-0  11232-3 0  9997,2 53980  53.2187 336.8293 0001170  94.1613 265.9513 15.08838590100683,6917.885,95.438,540.559,538.94,0.0
53980.0,STARLINK-5133,PAYLOAD,2024-07-30 20:26:12,15.08847239,0.0001395,53.2179,333.2608,83.1613,276.9537,-5.2447e-05,-1.123e-05,0.0,0 STARLINK-5133,1 53980U 22125S   24212.85153638 -.00001123  00000-0 -52447-4 0  9992,2 53980  53.2179 333.2608 0001395  83.1613 276.9537 15.08847239100871,6917.858,95.437,540.688,538.758,0.0
53980.0,STARLINK-5133,PAYLOAD,2024-07-31 13:55:27,15.08841661,0.0001147,53.2181,329.9902,90.8597,269.2527,7.2767e-05,8.71e-06,0.0,0 STARLINK-5133,1 53980U 22125S   24213.58017558  .00000871  00000-0  72767-4 0  9997,2 53980  53.2181 329.9902 0001147  90.8597 269.2527 15.08841661100916,6917.875,95.437,540.534,538.947,0.0
53980.0,STARLINK-5133,PAYLOAD,2024-07-31 17:06:12,15.08855916,0.0001326,53.2184,329.3948,87.5968,272.5176,0.0001825,2.619e-05,0.0,0 STARLINK-5133,1 53980U 22125S   24213.71264311  .00002619  00000-0  18250-3 0  9991,2 53980  53.2184 329.3948 0001326  87.5968 272.5176 15.08855916101003,6917.832,95.437,540.614,538.779,0.0
53980.0,STARLINK-5133,PAYLOAD,2024-08-01 12:10:50,15.08841675,0.0001588,53.2193,325.8229,93.0728,267.0446,8.0872e-05,9.99e-06,0.0,0 STARLINK-5133,1 53980U 22125S   24214.50753356  .00000999  00000-0  80872-4 0  9990,2 53980  53.2193 325.8229 0001588  93.0728 267.0446 15.08841675101053,6917.875,95.437,540.839,538.642,0.0
53980.0,STARLINK-5133,PAYLOAD,2024-08-01 20:07:45,15.08850124,0.0001748,53.2188,324.3347,108.956,251.1622,0.00022898,3.359e-05,0.0,0 STARLINK-5133,1 53980U 22125S   24214.83872165  .00003359  00000-0  22898-3 0  9992,2 53980  53.2188 324.3347 0001748 108.9560 251.1622 15.08850124101172,6917.849,95.437,540.924,538.505,0.0
53980.0,STARLINK-5133,PAYLOAD,2024-08-02 00:53:57,15.08816151,2.04e-05,53.219,323.4497,154.9631,205.1371,-0.00012436,-2.265e-05,0.0,0 STARLINK-5133,1 53980U 22125S   24215.03746919 -.00002265  00000-0 -12436-3 0  9996,2 53980  53.2190 323.4497 0000204 154.9631 205.1371 15.08816151101203,6917.953,95.439,539.959,539.677,0.0
53980.0,STARLINK-5133,PAYLOAD,2024-08-02 13:37:02,15.08833235,0.0001507,53.2174,321.068,97.5079,262.6084,-3.9954e-05,-9.24e-06,0.0,0 STARLINK-5133,1 53980U 22125S   24215.56738516 -.00000924  00000-0 -39954-4 0  9993,2 53980  53.2174 321.0680 0001507  97.5079 262.6084 15.08833235101287,6917.901,95.438,540.809,538.724,0.0
53980.0,STARLINK-5133,PAYLOAD,2024-08-03 11:52:25,15.08854376,0.0001519,53.219,316.9083,66.1957,293.9194,-5.6639e-05,-1.19e-05,0.0,0 STARLINK-5133,1 53980U 22125S   24216.49473709 -.00001190  00000-0 -56639-4 0  9991,2 53980  53.2190 316.9083 0001519  66.1957 293.9194 15.08854376101429,6917.836,95.437,540.752,538.651,0.0
53980.0,STARLINK-5133,PAYLOAD,2024-08-03 13:27:48,15.08856706,0.0001403,53.2187,316.6094,74.8175,285.2973,-9.3211e-06,-4.36e-06,0.0,0 STARLINK-5133,1 53980U 22125S   24216.56097335 -.00000436  00000-0 -93211-5 0  9996,2 53980  53.2187 316.6094 0001403  74.8175 285.2973 15.08856706101365,6917.829,95.436,540.665,538.724,0.0
53980.0,STARLINK-5133,PAYLOAD,2024-08-04 13:18:36,15.08840716,0.0001313,53.2167,312.1492,97.9244,262.1898,0.00025497,3.772e-05,0.0,0 STARLINK-5133,1 53980U 22125S   24217.55458642  .00003772  00000-0  25497-3 0  9991,2 53980  53.2167 312.1492 0001313  97.9244 262.1898 15.08840716101587,6917.878,95.438,540.652,538.835,0.0
53980.0,STARLINK-5133,PAYLOAD,2024-08-04 22:50:54,15.08854362,0.0001343,53.2174,310.3688,100.9964,259.1179,0.00032,4.811e-05,0.0,0 STARLINK-5133,1 53980U 22125S   24217.95201845  .00004811  00000-0  32000-3 0  9999,2 53980  53.2174 310.3688 0001343 100.9964 259.1179 15.08854362101578,6917.836,95.437,540.631,538.772,0.0
53980.0,STARLINK-5133,PAYLOAD,2024-08-05 22:41:41,15.08842528,0.0001428,53.2165,305.9097,112.3157,247.7986,-1.3243e-06,-3.09e-06,0.0,0 STARLINK-5133,1 53980U 22125S   24218.94561724 -.00000309  00000-0 -13243-5 0  9994,2 53980  53.2165 305.9097 0001428 112.3157 247.7986 15.08842528101724,6917.873,95.437,540.726,538.75,0.0
53980.0,STARLINK-5133,PAYLOAD,2024-08-06 05:03:14,15.08835632,0.0001959,53.2166,304.7185,103.2797,256.8414,-0.00014731,-2.632e-05,0.0,0 STARLINK-5133,1 53980U 22125S   24219.21058253 -.00002632  00000-0 -14731-3 0  9995,2 53980  53.2166 304.7185 0001959 103.2797 256.8414 15.08835632101835,6917.894,95.438,541.114,538.404,0.0
53980.0,STARLINK-5133,PAYLOAD,2024-08-06 11:24:47,15.08822893,0.0002119,53.2183,303.5259,115.7583,244.3628,-0.00029779,-5.022e-05,0.0,0 STARLINK-5133,1 53980U 22125S   24219.47554876 -.00005022  00000-0 -29779-3 0  9999,2 53980  53.2183 303.5259 0002119 115.7583 244.3628 15.08822893101871,6917.933,95.439,541.264,538.332,0.0
53980.0,STARLINK-5133,PAYLOAD,2024-08-07 12:50:57,15.08855744,0.0001618,53.2168,298.7688,111.5088,248.6077,0.0010804,0.00016956,0.0,0 STARLINK-5133,1 53980U 22125S   24220.53538675  .00016956  00000-0  10804-2 0  9991,2 53980  53.2168 298.7688 0001618 111.5088 248.6077 15.08855744102037,6917.832,95.437,540.817,538.578,0.0
